      2.10          N: GNSS NAV DATA                        RINEX VERSION / TYPE
fic2rin                                 08/19/2018 00:24:08 PGM / RUN BY / DATE
                                                            END OF HEADER
22 18  8 18  4  0  0.0-4.924791865051e-04-1.136868377216e-11 0.000000000000e+00
    5.100000000000e+01-1.806250000000e+01 5.543802350192e-09 3.005881175382e+00
   -1.188367605209e-06 7.166662137024e-03 6.303191184998e-06 5.153734806061e+03
    5.328000000000e+05 1.266598701477e-07 3.134730862672e+00 3.725290298462e-09
    9.259498669915e-01 2.382500000000e+02-1.494431695844e+00-8.441780205459e-09
    1.210764718925e-10 1.000000000000e+00 2.014000000000e+03 0.000000000000e+00
    2.400000000000e+00 0.000000000000e+00-1.816079020500e-08 5.100000000000e+01
    5.256060000000e+05 4.000000000000e+00
24 18  8 18  4  0  0.0-5.412101745605e-05-5.684341886081e-13 0.000000000000e+00
    4.600000000000e+01 6.056250000000e+01 5.113784438220e-09 1.901265633928e+00
    3.200024366379e-06 7.122143520974e-03 7.648020982742e-06 5.153638078690e+03
    5.328000000000e+05-2.272427082062e-07-1.036103630926e+00 1.005828380585e-07
    9.406644061283e-01 2.219687500000e+02 5.330310169614e-01-8.373563078227e-09
    7.143154683922e-12 1.000000000000e+00 2.014000000000e+03 0.000000000000e+00
    2.400000000000e+00 0.000000000000e+00 2.793967723846e-09 4.600000000000e+01
    5.256060000000e+05 4.000000000000e+00
14 18  8 18  4  0  0.0-9.759562090039e-05 1.136868377216e-13 0.000000000000e+00
    4.400000000000e+01 1.340625000000e+01 4.560904265684e-09-2.835222854709e+00
    6.314367055893e-07 1.007642515469e-02 9.808689355850e-06 5.153619028091e+03
    5.328000000000e+05 2.607703208923e-07-1.962172294181e+00-9.126961231232e-08
    9.607035399015e-01 1.875312500000e+02-1.942376206691e+00-7.851398470833e-09
   -1.167905790821e-10 1.000000000000e+00 2.014000000000e+03 0.000000000000e+00
    2.400000000000e+00 0.000000000000e+00-9.778887033463e-09 4.400000000000e+01
    5.256060000000e+05 4.000000000000e+00
13 18  8 18  4  0  0.0-9.080208837986e-05 6.821210263297e-13 0.000000000000e+00
    3.700000000000e+01 6.218750000000e+00 4.428398746297e-09 2.497184364084e+00
    2.570450305939e-07 3.313786699437e-03 9.918585419655e-06 5.153665714264e+03
    5.328000000000e+05 1.117587089539e-08-1.919697162635e+00-2.235174179077e-08
    9.681255055590e-01 1.935000000000e+02 1.493786965903e+00-7.822111536628e-09
   -1.007184810433e-10 1.000000000000e+00 2.014000000000e+03 0.000000000000e+00
    2.400000000000e+00 0.000000000000e+00-1.117587089539e-08 3.700000000000e+01
    5.256060000000e+05 4.000000000000e+00
 7 18  8 18  4  0  0.0 1.398543827236e-04-6.480149750132e-12 0.000000000000e+00
    8.600000000000e+01 7.271875000000e+01 4.776270379404e-09 9.002245271764e-01
    4.032626748085e-06 1.202715118416e-02 8.275732398033e-06 5.153651710510e+03
    5.328000000000e+05-2.048909664154e-08-9.749434893954e-01 1.080334186554e-07
    9.576053076248e-01 2.180312500000e+02-2.500328584653e+00-8.367848554480e-09
   -1.121475285376e-10 1.000000000000e+00 2.014000000000e+03 0.000000000000e+00
    2.400000000000e+00 0.000000000000e+00-1.117587089539e-08 8.600000000000e+01
    5.256060000000e+05 4.000000000000e+00
21 18  8 18  4  0  0.0-3.509460948408e-04 5.798028723802e-12 0.000000000000e+00
    5.100000000000e+01-7.781250000000e+00 4.897704009031e-09-2.204015525408e-01
   -3.967434167862e-07 2.434662287124e-02 8.227303624153e-06 5.153646156311e+03
    5.328000000000e+05-5.010515451431e-07 2.098123007771e+00 1.620501279831e-07
    9.447931998234e-01 2.195312500000e+02-1.535700238891e+00-8.646431587153e-09
    4.078741324519e-10 1.000000000000e+00 2.014000000000e+03 0.000000000000e+00
    2.400000000000e+00 0.000000000000e+00-1.024454832077e-08 5.100000000000e+01
    5.256060000000e+05 4.000000000000e+00
12 18  8 18  4  0  0.0 3.133127465844e-04-2.614797267597e-12 0.000000000000e+00
    4.400000000000e+01 5.687500000000e+00 4.104099523647e-09 3.423647607065e-01
    2.868473529816e-07 7.051446125843e-03 5.204230546951e-06 5.153788629532e+03
    5.328000000000e+05-4.470348358154e-08 1.191035485694e-01 7.078051567078e-08
    9.860886298409e-01 2.916562500000e+02 1.024052493611e+00-8.110694985859e-09
   -2.428672592533e-10 1.000000000000e+00 2.014000000000e+03 0.000000000000e+00
    2.400000000000e+00 0.000000000000e+00-1.257285475731e-08 4.400000000000e+01
    5.256060000000e+05 4.000000000000e+00
10 18  8 18  4  0  0.0 1.863548532128e-04-1.364242052659e-12 0.000000000000e+00
    4.000000000000e+01-2.643750000000e+01 4.739840290516e-09-4.610989092947e-01
   -1.290813088417e-06 3.699983702973e-03 6.850808858871e-06 5.153661470413e+03
    5.328000000000e+05 9.313225746155e-09-3.089253611104e+00 4.842877388000e-08
    9.618660126431e-01 2.474375000000e+02-2.782228502459e+00-8.194627053395e-09
    9.428964182777e-11 1.000000000000e+00 2.014000000000e+03 0.000000000000e+00
    2.400000000000e+00 0.000000000000e+00 1.862645149231e-09 4.000000000000e+01
    5.256060000000e+05 4.000000000000e+00
11 18  8 18  4  0  0.0-7.240916602314e-04 2.273736754432e-12 0.000000000000e+00
    8.500000000000e+01-3.784375000000e+01 5.688451232541e-09 9.031334242065e-01
   -2.166256308556e-06 1.703993976116e-02 8.527189493179e-06 5.153653484344e+03
    5.328000000000e+05-1.341104507446e-07 1.722101120493e+00-2.719461917877e-07
    9.061125808032e-01 1.893437500000e+02 1.800178857772e+00-8.922514515687e-09
    1.839362331110e-10 1.000000000000e+00 2.014000000000e+03 0.000000000000e+00
    2.400000000000e+00 0.000000000000e+00-1.210719347000e-08 8.500000000000e+01
    5.256060000000e+05 4.000000000000e+00
 9 18  8 18  4  0  0.0 5.106185562909e-04-1.364242052659e-12 0.000000000000e+00
    5.200000000000e+01-2.156250000000e+00 4.888775065676e-09-2.202447003661e+00
   -2.048909664154e-08 9.301274549216e-04 9.564682841301e-06 5.153562736511e+03
    5.328000000000e+05-3.725290298462e-09-2.052680264978e+00-1.862645149231e-08
    9.525340626042e-01 1.920312500000e+02 1.781484426594e+00-8.107123408517e-09
   -1.460775132862e-10 1.000000000000e+00 2.014000000000e+03 0.000000000000e+00
    2.400000000000e+00 0.000000000000e+00 9.313225746155e-10 5.200000000000e+01
    5.256060000000e+05 4.000000000000e+00
17 18  8 18  4  0  0.0-6.607547402382e-05 4.206412995700e-12 0.000000000000e+00
    1.050000000000e+02-5.018750000000e+01 3.768371253503e-09-2.564862466897e+00
   -2.490356564522e-06 1.246520050336e-02 7.702037692070e-06 5.153601156235e+03
    5.328000000000e+05 1.080334186554e-07 1.152677426944e+00-1.024454832077e-07
    9.830122564862e-01 2.434062500000e+02-1.777037358979e+00-7.529956510056e-09
   -4.214461263514e-11 1.000000000000e+00 2.014000000000e+03 0.000000000000e+00
    3.400000000000e+00 0.000000000000e+00-1.117587089539e-08 1.050000000000e+02
    5.256060000000e+05 4.000000000000e+00
32 18  8 18  4  0  0.0-4.486916586757e-04 9.777068044059e-12 0.000000000000e+00
    9.300000000000e+01 8.531250000000e+00 4.738411659579e-09-1.829718547282e+00
    4.582107067108e-07 2.296603983268e-03 9.436160326004e-06 5.153695144653e+03
    5.328000000000e+05 8.940696716309e-08-2.047312474759e+00 4.656612873077e-08
    9.568815786443e-01 1.951562500000e+02-2.523414161940e+00-8.037834808083e-09
   -9.607543049875e-11 1.000000000000e+00 2.014000000000e+03 0.000000000000e+00
    2.400000000000e+00 0.000000000000e+00 4.656612873077e-10 9.300000000000e+01
    5.256060000000e+05 4.000000000000e+00
27 18  8 18  4  0  0.0 3.530532121658e-04-3.069544618484e-12 0.000000000000e+00
    4.700000000000e+01-4.943750000000e+01 3.900162457421e-09-2.544249067557e+00
   -2.494081854820e-06 6.010923534632e-03 8.197501301765e-06 5.153695795059e+03
    5.328000000000e+05 7.450580596924e-09 1.098142548811e+00-1.862645149231e-08
    9.777082041454e-01 2.294062500000e+02 4.582165071739e-01-7.822468694363e-09
   -6.928860043404e-11 1.000000000000e+00 2.014000000000e+03 0.000000000000e+00
    2.400000000000e+00 0.000000000000e+00 1.862645149231e-09 4.700000000000e+01
    5.256060000000e+05 4.000000000000e+00
26 18  8 18  4  0  0.0-4.829326644540e-05 1.182343112305e-11 0.000000000000e+00
    1.020000000000e+02 5.656250000000e+00 4.783770691822e-09-6.478224213870e-01
    2.607703208923e-07 2.840272383764e-03 4.678964614868e-06 5.153705289841e+03
    5.328000000000e+05 3.166496753693e-08 3.493373179301e-02-6.519258022308e-08
    9.551368293971e-01 2.890000000000e+02 8.552137606859e-02-8.401421381494e-09
   -2.242950570751e-10 1.000000000000e+00 2.014000000000e+03 0.000000000000e+00
    2.400000000000e+00 0.000000000000e+00 7.450580596924e-09 1.020000000000e+02
    5.256060000000e+05 4.000000000000e+00
16 18  8 18  4  0  0.0 1.310277730227e-05-1.591615728103e-12 0.000000000000e+00
    1.130000000000e+02-1.250000000000e-01 4.043739866568e-09-1.573379235938e+00
    3.352761268616e-08 9.979501366615e-03 4.917383193970e-06 5.153680601120e+03
    5.328000000000e+05 7.078051567078e-08 1.380047061642e-01-1.247972249985e-07
    9.865010908159e-01 2.985000000000e+02 5.230865782327e-01-7.954259898281e-09
   -1.421487782100e-10 1.000000000000e+00 2.014000000000e+03 0.000000000000e+00
    2.400000000000e+00 0.000000000000e+00-1.071020960808e-08 1.130000000000e+02
    5.256060000000e+05 4.000000000000e+00
30 18  8 18  4  0  0.0 3.621215000749e-05-5.002220859751e-12 0.000000000000e+00
    6.500000000000e+01 6.831250000000e+01 5.070568352382e-09 8.980021322504e-01
    3.643333911896e-06 3.610868589021e-03 7.346272468567e-06 5.153703285217e+03
    5.328000000000e+05 2.421438694000e-08-9.425624765048e-01-4.842877388000e-08
    9.431904428678e-01 2.241250000000e+02-2.991291892754e+00-8.399635592824e-09
   -5.571660653459e-11 1.000000000000e+00 2.014000000000e+03 0.000000000000e+00
    2.400000000000e+00 0.000000000000e+00 3.725290298462e-09 6.500000000000e+01
    5.256060000000e+05 4.000000000000e+00
